[{"OBJECT_NAME":"LEGION 4","OBJECT_ID":"2024-146B","EPOCH":"2026-03-09T20:57:25.515072","MEAN_MOTION":15.16207109,"ECCENTRICITY":0.00094512,"INCLINATION":45.0024,"RA_OF_ASC_NODE":294.7765,"ARG_OF_PERICENTER":105.8895,"MEAN_ANOMALY":254.3026,"EPHEMERIS_TYPE":0,"CLASSIFICATION_TYPE":"U","NORAD_CAT_ID":60453,"ELEMENT_SET_NO":999,"REV_AT_EPOCH":8580,"BSTAR":0.00030530233,"MEAN_MOTION_DOT":5.743e-5,"MEAN_MOTION_DDOT":0},{"OBJECT_NAME":"HAWK-13B","OBJECT_ID":"2026-004AK","EPOCH":"2026-03-09T21:38:50.163072","MEAN_MOTION":15.18214359,"ECCENTRICITY":0.00057548,"INCLINATION":97.4526,"RA_OF_ASC_NODE":69.3757,"ARG_OF_PERICENTER":335.2738,"MEAN_ANOMALY":24.8219,"EPHEMERIS_TYPE":0,"CLASSIFICATION_TYPE":"U","NORAD_CAT_ID":67396,"ELEMENT_SET_NO":999,"REV_AT_EPOCH":869,"BSTAR":0.00016976548,"MEAN_MOTION_DOT":3.406e-5,"MEAN_MOTION_DDOT":0}]
